NORAD_CAT_ID,OBJECT_NAME,OBJECT_TYPE,EPOCH,MEAN_MOTION,ECCENTRICITY,INCLINATION,RA_OF_ASC_NODE,ARG_OF_PERICENTER,MEAN_ANOMALY,BSTAR,MEAN_MOTION_DOT,MEAN_MOTION_DDOT,TLE_LINE0,TLE_LINE1,TLE_LINE2,SEMIMAJOR_AXIS,PERIOD,APOGEE,PERIGEE,DECAYED
53139.0,STARLINK-4185,PAYLOAD,2023-02-16 15:41:10,15.08873778,0.0001082,53.2174,148.692,114.4608,245.6497,7.2074e-05,8.6e-06,0.0,0 STARLINK-4185,1 53139U 22083H   23047.65358920  .00000860  00000-0  72074-4 0  9998,2 53139  53.2174 148.6920 0001082 114.4608 245.6497 15.08873778 33210,6917.777,95.435,540.391,538.894,0.0
53139.0,STARLINK-4185,PAYLOAD,2023-02-17 20:18:09,15.08837061,0.0001034,53.2156,143.3366,70.9938,289.1166,-0.00022169,-3.814e-05,0.0,0 STARLINK-4185,1 53139U 22083H   23048.84594008 -.00003814  00000-0 -22169-3 0  9992,2 53139  53.2156 143.3366 0001034  70.9938 289.1166 15.08837061 33395,6917.889,95.438,540.47,539.039,0.0
53139.0,STARLINK-4185,PAYLOAD,2023-02-18 23:19:42,15.08844799,0.0001129,53.2159,138.2851,85.7327,274.3794,-0.0001186,-2.175e-05,0.0,0 STARLINK-4185,1 53139U 22083H   23049.97201781 -.00002175  00000-0 -11860-3 0  9995,2 53139  53.2159 138.2851 0001129  85.7327 274.3794 15.08844799 33569,6917.866,95.437,540.512,538.95,0.0
53139.0,STARLINK-4185,PAYLOAD,2023-02-19 12:02:47,15.08847547,9.33e-05,53.2155,135.9093,70.5139,289.5954,0.00022902,3.36e-05,0.0,0 STARLINK-4185,1 53139U 22083H   23050.50194056  .00003360  00000-0  22902-3 0  9996,2 53139  53.2155 135.9093 0000933  70.5139 289.5954 15.08847547 33012,6917.857,95.437,540.368,539.077,0.0
53139.0,STARLINK-4185,PAYLOAD,2023-02-20 08:42:49,15.08848258,0.0001238,53.2152,132.0452,63.1051,297.0067,0.00019719,2.852e-05,0.0,0 STARLINK-4185,1 53139U 22083H   23051.36306714  .00002852  00000-0  19719-3 0  9994,2 53139  53.2152 132.0452 0001238  63.1051 297.0067 15.08848258 33778,6917.855,95.437,540.577,538.864,0.0
53139.0,STARLINK-4185,PAYLOAD,2023-02-20 11:53:34,15.08858431,0.0001217,53.2154,131.4464,83.4326,276.6804,0.00039868,6.066e-05,0.0,0 STARLINK-4185,1 53139U 22083H   23051.49554224  .00006066  00000-0  39868-3 0  9997,2 53139  53.2154 131.4464 0001217  83.4326 276.6804 15.08858431 33162,6917.824,95.436,540.531,538.847,0.0
53139.0,STARLINK-4185,PAYLOAD,2023-02-20 15:04:20,15.08866423,0.0001328,53.2152,130.8516,85.4123,274.702,0.00053597,8.258e-05,0.0,0 STARLINK-4185,1 53139U 22083H   23051.62801835  .00008258  00000-0  53597-3 0  9995,2 53139  53.2152 130.8516 0001328  85.4123 274.7020 15.08866423 33812,6917.8,95.436,540.583,538.746,0.0
53139.0,STARLINK-4185,PAYLOAD,2023-02-21 05:22:49,15.08849,0.0001519,53.2169,128.1737,95.0456,265.071,0.00016993,2.418e-05,0.0,0 STARLINK-4185,1 53139U 22083H   23052.22417885  .00002418  00000-0  16993-3 0  9991,2 53139  53.2169 128.1737 0001519  95.0456 265.0710 15.08849000 33904,6917.853,95.437,540.769,538.667,0.0
53139.0,STARLINK-4185,PAYLOAD,2023-02-21 13:19:44,15.08860374,0.0001284,53.2149,126.687,92.214,267.8999,0.0012907,0.00020325,0.0,0 STARLINK-4185,1 53139U 22083H   23052.55537784  .00020325  00000-0  12907-2 0  9995,2 53139  53.2149 126.6870 0001284  92.2140 267.8999 15.08860374 33323,6917.818,95.436,540.571,538.795,0.0
53139.0,STARLINK-4185,PAYLOAD,2023-02-21 16:30:30,15.08868014,0.0001368,53.215,126.0923,92.0162,268.0986,0.0015117,0.00023871,0.0,0 STARLINK-4185,1 53139U 22083H   23052.68785535  .00023871  00000-0  15117-2 0  9993,2 53139  53.2150 126.0923 0001368  92.0162 268.0986 15.08868014 33972,6917.795,95.436,540.606,538.713,0.0
53139.0,STARLINK-4185,PAYLOAD,2023-02-21 21:16:40,15.08839595,7.76e-05,53.2156,125.2016,140.062,220.0429,0.00020455,2.969e-05,0.0,0 STARLINK-4185,1 53139U 22083H   23052.88657682  .00002969  00000-0  20455-3 0  9993,2 53139  53.2156 125.2016 0000776 140.0620 220.0429 15.08839595 34004,6917.882,95.438,540.283,539.21,0.0
53139.0,STARLINK-4185,PAYLOAD,2023-02-22 11:35:08,15.08851114,0.0001617,53.2151,122.5257,111.3289,248.7876,0.0011838,0.00018608,0.0,0 STARLINK-4185,1 53139U 22083H   23053.48273847  .00018608  00000-0  11838-2 0  9998,2 53139  53.2151 122.5257 0001617 111.3289 248.7876 15.08851114 33466,6917.846,95.437,540.83,538.593,0.0
53139.0,STARLINK-4185,PAYLOAD,2023-02-22 16:21:17,15.08863203,0.0001431,53.2145,121.632,103.2421,256.8731,0.001602,0.00025316,0.0,0 STARLINK-4185,1 53139U 22083H   23053.68145571  .00025316  00000-0  16020-2 0  9994,2 53139  53.2145 121.6320 0001431 103.2421 256.8731 15.08863203 34128,6917.809,95.436,540.664,538.685,0.0
53139.0,STARLINK-4185,PAYLOAD,2023-02-22 21:07:27,15.08835631,0.0001714,53.2147,120.7403,98.6235,261.4951,0.00040357,6.14e-05,0.0,0 STARLINK-4185,1 53139U 22083H   23053.88018209  .00006140  00000-0  40357-3 0  9998,2 53139  53.2147 120.7403 0001714  98.6235 261.4951 15.08835631 33529,6917.894,95.438,540.944,538.573,0.0
53139.0,STARLINK-4185,PAYLOAD,2023-02-23 09:50:33,15.08834765,0.0001267,53.2143,118.3615,103.3587,256.7547,0.0013681,0.00021549,0.0,0 STARLINK-4185,1 53139U 22083H   23054.41010505  .00021549  00000-0  13681-2 0  9998,2 53139  53.2143 118.3615 0001267 103.3587 256.7547 15.08834765 33604,6917.896,95.438,540.638,538.885,0.0
53139.0,STARLINK-4185,PAYLOAD,2023-02-23 20:58:15,15.08838573,0.0001138,53.2139,116.2792,116.2606,243.8503,0.00090851,0.000142,0.0,0 STARLINK-4185,1 53139U 22083H   23054.87378670  .00014200  00000-0  90851-3 0  9999,2 53139  53.2139 116.2792 0001138 116.2606 243.8503 15.08838573 34302,6917.885,95.438,540.537,538.962,0.0
53139.0,STARLINK-4185,PAYLOAD,2023-02-24 12:52:06,15.08856129,0.0001221,53.214,113.3056,103.8373,256.2755,0.001145,0.0001799,0.0,0 STARLINK-4185,1 53139U 22083H   23055.53618418  .00017990  00000-0  11450-2 0  9996,2 53139  53.2140 113.3056 0001221 103.8373 256.2755 15.08856129 33775,6917.831,95.437,540.541,538.851,0.0
53139.0,STARLINK-4185,PAYLOAD,2023-02-24 20:49:02,15.08835549,0.0001781,53.2141,111.8177,86.8513,273.2683,0.00022992,3.373e-05,0.0,0 STARLINK-4185,1 53139U 22083H   23055.86738913  .00003373  00000-0  22992-3 0  9999,2 53139  53.2141 111.8177 0001781  86.8513 273.2683 15.08835549 34458,6917.894,95.438,540.991,538.527,0.0
53139.0,STARLINK-4185,PAYLOAD,2023-02-25 12:42:54,15.0883299,0.0001281,53.2147,108.8444,88.2408,271.8731,0.00011348,1.518e-05,0.0,0 STARLINK-4185,1 53139U 22083H   23056.52979249  .00001518  00000-0  11348-3 0  9994,2 53139  53.2147 108.8444 0001281  88.2408 271.8731 15.08832990 33927,6917.902,95.438,540.653,538.881,0.0
53139.0,STARLINK-4185,PAYLOAD,2023-02-25 20:39:49,15.08841741,0.0001266,53.2148,107.3575,88.7346,271.3791,0.00044365,6.78e-05,0.0,0 STARLINK-4185,1 53139U 22083H   23056.86099264  .00006780  00000-0  44365-3 0  9992,2 53139  53.2148 107.3575 0001266  88.7346 271.3791 15.08841741 33976,6917.875,95.437,540.616,538.864,0.0
53139.0,STARLINK-4185,PAYLOAD,2023-02-26 03:01:22,15.08846978,0.0001291,53.2145,106.1679,85.9276,274.1864,0.00096255,0.00015067,0.0,0 STARLINK-4185,1 53139U 22083H   23057.12595345  .00015067  00000-0  96255-3 0  9996,2 53139  53.2145 106.1679 0001291  85.9276 274.1864 15.08846978 34648,6917.859,95.437,540.617,538.831,0.0
53139.0,STARLINK-4185,PAYLOAD,2023-02-26 12:33:40,15.08873013,0.0001348,53.2142,104.3841,84.0354,276.0792,0.00144,0.00022725,0.0,0 STARLINK-4185,1 53139U 22083H   23057.52338599  .00022725  00000-0  14400-2 0  9996,2 53139  53.2142 104.3841 0001348  84.0354 276.0792 15.08873013 34074,6917.779,95.435,540.577,538.712,0.0
53139.0,STARLINK-4185,PAYLOAD,2023-02-26 20:30:36,15.08849318,0.0001391,53.2151,102.8958,79.1322,280.9827,0.00043676,6.672e-05,0.0,0 STARLINK-4185,1 53139U 22083H   23057.85458929  .00006672  00000-0  43676-3 0  9993,2 53139  53.2151 102.8958 0001391  79.1322 280.9827 15.08849318 34753,6917.852,95.437,540.679,538.755,0.0
53139.0,STARLINK-4185,PAYLOAD,2023-02-27 13:59:50,15.08875807,0.0001726,53.2145,99.623,87.8083,272.3106,0.0017926,0.00028385,0.0,0 STARLINK-4185,1 53139U 22083H   23058.58322621  .00028385  00000-0  17926-2 0  9996,2 53139  53.2145  99.6230 0001726  87.8083 272.3106 15.08875807 34863,6917.771,95.435,540.83,538.442,0.0
53139.0,STARLINK-4185,PAYLOAD,2023-02-28 07:29:04,15.08874312,0.0001256,53.2145,96.3546,80.7566,279.3569,0.0010636,0.00016696,0.0,0 STARLINK-4185,1 53139U 22083H   23059.31185819  .00016696  00000-0  10636-2 0  9997,2 53139  53.2145  96.3546 0001256  80.7566 279.3569 15.08874312 34975,6917.776,95.435,540.509,538.772,0.0
53139.0,STARLINK-4185,PAYLOAD,2023-02-28 12:15:13,15.08886215,0.000137,53.2151,95.4617,81.1742,278.9405,0.0015386,0.00024315,0.0,0 STARLINK-4185,1 53139U 22083H   23059.51057238  .00024315  00000-0  15386-2 0  9996,2 53139  53.2151  95.4617 0001370  81.1742 278.9405 15.08886215 34372,6917.739,95.435,540.552,538.656,0.0
53139.0,STARLINK-4185,PAYLOAD,2023-02-28 13:50:36,15.08890408,0.0001374,53.2151,95.1643,84.0684,276.0465,0.001515,0.00023939,0.0,0 STARLINK-4185,1 53139U 22083H   23059.57680989  .00023939  00000-0  15150-2 0  9997,2 53139  53.2151  95.1643 0001374  84.0684 276.0465 15.08890408 34384,6917.726,95.434,540.542,538.641,0.0
53139.0,STARLINK-4185,PAYLOAD,2023-03-01 02:33:43,15.08797139,0.0001642,53.2157,92.7831,115.4023,244.7139,-0.00015588,-2.765e-05,0.0,0 STARLINK-4185,1 53139U 22083H   23060.10675382 -.00002765  00000-0 -15588-3 0  9991,2 53139  53.2157  92.7831 0001642 115.4023 244.7139 15.08797139 35092,6918.011,95.44,541.012,538.74,0.0
53139.0,STARLINK-4185,PAYLOAD,2023-03-01 18:27:36,15.08814588,0.000108,53.2153,89.8132,102.7927,257.3186,0.0019126,0.00030261,0.0,0 STARLINK-4185,1 53139U 22083H   23060.76917365  .00030261  00000-0  19126-2 0  9994,2 53139  53.2153  89.8132 0001080 102.7927 257.3186 15.08814588 35198,6917.958,95.439,540.57,539.076,0.0
53139.0,STARLINK-4185,PAYLOAD,2023-03-02 18:18:23,15.08865766,0.0001261,53.216,85.3502,103.4931,256.6201,0.0014832,0.00023413,0.0,0 STARLINK-4185,1 53139U 22083H   23061.76277106  .00023413  00000-0  14832-2 0  9997,2 53139  53.2160  85.3502 0001261 103.4931 256.6201 15.08865766 34713,6917.802,95.436,540.539,538.794,0.0
